ONEWEB-0201             
1 48241U 21031AH  21248.50002315  .00044961  00000-0  10899+0 0  9999
2 48241  87.9221 276.6973 0002607 103.6898  51.0528 13.21394062 19035
ONEWEB-0207             
1 48242U 21031AJ  21248.50002315  .00000013  00000-0  00000+0 0  9993
2 48242  87.9024 276.6944 0001137 112.7930 262.2576 13.14874772 18963
ONEWEB-0208             
1 48243U 21031AK  21247.91667824  .00038153  00000-0  10253+0 0  9997
2 48243  87.8975 276.8106 0001347 110.0582 134.8139 13.14449137  3312
ONEWEB-0200             
1 48244U 21031AL  21248.50002315  .00040577  00000-0  10865+0 0  9994
2 48244  87.8985 276.6760 0001852 106.5519 183.6550 13.14680627 18900
ONEWEB-0217             
1 48245U 21031AM  21248.50002315  .00044257  00000-0  11868+0 0  9998
2 48245  87.9018 276.6827 0001586 150.8288  75.3301 13.14552500 18855
ONEWEB-0211             
1 48767U 21045A   21248.50002315  .00000015  00000-0  00000+0 0  9992
2 48767  87.8549 246.3622 0005222 317.3078 205.9497 13.60662426 15974
ONEWEB-0223             
1 48768U 21045B   21248.50002315  .00000014  00000-0  00000+0 0  9992
2 48768  87.8589 246.3571 0007217 274.4044 333.5363 13.53356142 15960
ONEWEB-0230             
1 48769U 21045C   21248.50002315  .00000016  00000-0  00000+0 0  9995
2 48769  88.0308 246.2827 0004034 283.4238 145.6476 13.97063990 16136
ONEWEB-0237             
1 48770U 21045D   21248.50002315  .00003406  00000-0  40127-2 0  9990
2 48770  87.7678 246.1107 0009016 297.9702  38.7093 13.67687639 15927
ONEWEB-0235             
1 48771U 21045E   21248.50002315  .00000015  00000-0  00000+0 0  9997
2 48771  87.7885 246.2505 0003413 317.3781 345.2963 13.60087834 15892
ONEWEB-0242             
1 48772U 21045F   21248.50002315  .00000014  00000-0  00000+0 0  9997
2 48772  87.8612 246.3638 0009582 310.6532 127.5662 13.58560050 15983
ONEWEB-0241             
1 48773U 21045G   21248.50002315  .00000014  00000-0  00000+0 0  9998
2 48773  87.8606 246.3516 0004120 293.8516 315.5702 13.48021215 15910
ONEWEB-0243             
1 48774U 21045H   21248.50002315  .00000015  00000-0  00000+0 0  9990
2 48774  87.7919 246.1428 0009003 303.2592 255.0330 13.60884358 15905
ONEWEB-0222             
1 48775U 21045J   21248.50002315  .00000014  00000-0  00000+0 0  9990
2 48775  87.8329 246.3154 0008938 297.3778 160.4235 13.58775961 15948
ONEWEB-0244             
1 48776U 21045K   21248.50002315 -.01030385  00000-0 -50681+0 0  9998
2 48776  87.9143 246.0405 0003650 296.8894 249.8275 14.21081187 16127
ONEWEB-0247             
1 48777U 21045L   21248.50002315  .00000014  00000-0  00000+0 0  9992
2 48777  87.9387 246.2240 0004805 298.4142 251.1108 13.59773521 15933
ONEWEB-0245             
1 48778U 21045M   21248.50002315  .00000015  00000-0  00000+0 0  9994
2 48778  87.8025 246.2175 0009090 302.3505 203.7155 13.61875939 15921
ONEWEB-0229             
1 48779U 21045N   21248.50002315  .00000015  00000-0  00000+0 0  9995
2 48779  87.7889 246.1275 0004533 307.3647 318.7371 13.71229569 15939
ONEWEB-0228             
1 48780U 21045P   21248.25002315  .00000014  00000-0  00000+0 0  9998
2 48780  87.8412 246.2955 0007873 286.6235  49.7687 13.50518188 15859
ONEWEB-0232             
1 48781U 21045Q   21248.25002315  .00000015  00000-0  00000+0 0  9990
2 48781  87.9929 246.4427 0007887 288.3846   4.9114 13.85909136 16137
ONEWEB-0231             
1 48782U 21045R   21248.25002315  .00000014  00000-0  00000+0 0  9990
2 48782  87.8657 246.3512 0008115 308.9288  53.0162 13.48974057 15885
ONEWEB-0234             
1 48783U 21045S   21248.25002315  .00000015  00000-0  00000+0 0  9992
2 48783  87.9404 246.4111 0007221 276.0433  58.6035 13.85542733 15970
ONEWEB-0238             
1 48784U 21045T   21248.25002315  .00000014  00000-0  00000+0 0  9992
2 48784  87.8417 246.3401 0007226 300.0674  67.4329 13.56146740 15896
ONEWEB-0240             
1 48785U 21045U   21248.25002315  .00000015  00000-0  00000+0 0  9994
2 48785  87.8302 246.3842 0005827 298.6554  89.3257 13.59791674 15925
ONEWEB-0246             
1 48786U 21045V   21248.25002315  .00000014  00000-0  00000+0 0  9994
2 48786  87.8699 246.3585 0005625 344.7016  76.2595 13.42050859 15803
ONEWEB-0210             
1 48787U 21045W   21248.50002315  .00000014  00000-0  00000+0 0  9993
2 48787  87.9028 246.3436 0008605 288.6424 260.4440 13.47766951 15882
ONEWEB-0214             
1 48788U 21045X   21248.50002315  .00000014  00000-0  00000+0 0  9994
2 48788  87.8547 246.3272 0005275 317.1303 166.0453 13.48330575 15841
ONEWEB-0221             
1 48789U 21045Y   21248.25002315  .00000014  00000-0  00000+0 0  9997
2 48789  87.8563 246.3980 0008734 274.7904  25.3778 13.49600006 15920
ONEWEB-0213             
1 48790U 21045Z   21248.50002315  .00000015  00000-0  00000+0 0  9998
2 48790  87.8645 246.3103 0008443 278.2075  95.5215 13.70759363 15970
ONEWEB-0212             
1 48791U 21045AA  21248.50002315  .00000015  00000-0  00000+0 0  9999
2 48791  87.8440 246.3333 0009193 281.3166 334.0372 13.67412525 15986
ONEWEB-0227             
1 48792U 21045AB  21248.50002315  .00001922  00000-0  21759-2 0  9995
2 48792  87.7511 246.2155 0005598 295.3326 108.2861 13.69909022 15916
ONEWEB-0226             
1 48793U 21045AC  21248.50002315  .00002584  00000-0  35609-2 0  9990
2 48793  87.8181 246.2522 0008840 320.1888 214.1764 13.57953446 15883
ONEWEB-0224             
1 48794U 21045AD  21248.50002315  .00000014  00000-0  00000+0 0  9991
2 48794  87.9032 246.3311 0006022 286.5190  71.6788 13.51857399 15840
ONEWEB-0233             
1 48795U 21045AE  21248.50002315  .00000014  00000-0  00000+0 0  9992
2 48795  87.8333 246.2092 0004473 321.9804 206.3127 13.52058059 15844
ONEWEB-0190             
1 48796U 21045AF  21248.50002315  .00000014  00000-0  00000+0 0  9993
2 48796  87.8458 246.2839 0008345 320.3660 193.0173 13.55068853 15891
ONEWEB-0236             
1 48797U 21045AG  21248.16668981  .00000014  00000-0  00000+0 0  9993
2 48797  87.8778 246.3805 0006084 328.6020 124.2318 13.41056331 15788
ONEWEB-0248             
1 48798U 21045AH  21248.50002315  .00000014  00000-0  00000+0 0  9995
2 48798  87.8561 246.3495 0007020 301.4347 102.6152 13.54497833 15962
ONEWEB-0225             
1 48799U 21045AJ  21248.50002315  .00000014  00000-0  00000+0 0  9996
2 48799  87.8648 246.3559 0005511 315.0965  59.3018 13.54589009 15988
ONEWEB-0215             
1 48800U 21045AK  21248.50002315  .00000014  00000-0  00000+0 0  9999
2 48800  87.8536 246.3419 0006515 313.0250 176.1367 13.43348932 15859
ONEWEB-0216             
1 48801U 21045AL  21248.50002315  .00000014  00000-0  00000+0 0  9990
2 48801  87.8930 246.2427 0005894 314.0365 229.9457 13.54729557 15847
ONEWEB-0239             
1 48802U 21045AM  21248.50002315  .00000014  00000-0  00000+0 0  9991
2 48802  87.8172 246.3385 0009111 304.0797 285.2983 13.55937524 15906
ONEWEB-0249             
1 48967U 21060A   21248.16668981 -.00006851  00000-0 -49428-2 0  9996
2 48967  87.6782 216.8239 0009937  60.0868 239.9230 13.96886828 11000
ONEWEB-0250             
1 48968U 21060B   21248.50002315  .00000016  00000-0  00000+0 0  9993
2 48968  87.6443 216.6836 0009325  42.9374  81.4782 13.93003533 11045
ONEWEB-0251             
1 48969U 21060C   21248.16668981 -.00000433  00000-0 -15010-4 0  9990
2 48969  87.4206 214.3132 0012523  49.5549   7.2119 15.32834182 11346
ONEWEB-0252             
1 48970U 21060D   21248.50002315  .00000016  00000-0  00000+0 0  9996
2 48970  87.7462 216.7059 0013134  50.4815 252.3892 13.98465569 11086
ONEWEB-0253             
1 48971U 21060E   21248.50002315 -.01166203  00000-0 -88899+0 0  9993
2 48971  87.6905 216.7337 0009286  40.5241  11.6737 13.96856011 11036
ONEWEB-0254             
1 48972U 21060F   21248.50002315 -.01092547  00000-0 -82065+0 0  9992
2 48972  87.6647 216.7008 0012348  50.1059 262.5596 13.98012936 11023
ONEWEB-0255             
1 48973U 21060G   21248.50002315  .00000017  00000-0  00000+0 0  9990
2 48973  87.7394 216.6946 0008348  49.7303 134.2857 14.01490736 11090
ONEWEB-0256             
1 48974U 21060H   21248.50002315  .00000017  00000-0  00000+0 0  9991
2 48974  87.6905 216.7401 0014400  51.1320 163.3406 13.98697326 11066
ONEWEB-0257             
1 48975U 21060J   21248.50002315 -.01163282  00000-0 -98911+0 0  9997
2 48975  87.6327 216.6993 0011474  44.9990  75.2148 13.90569569 11042
ONEWEB-0258             
1 48976U 21060K   21248.50002315 -.01198732  00000-0 -92143+0 0  9997
2 48976  87.6423 216.6667 0009946  47.7163 131.5604 13.96470172 11020
ONEWEB-0259             
1 48977U 21060L   21247.91667824  .00003231  00000-0  22808-2 0  9994
2 48977  87.6722 216.8778 0013906  51.9466 150.7486 13.97599883 10989
ONEWEB-0260             
1 48978U 21060M   21248.50002315 -.00682637  00000-0 -51644+0 0  9991
2 48978  87.6697 216.7305 0007606  44.0711 193.7001 13.97140728 11039
ONEWEB-0261             
1 48979U 21060N   21248.50002315  .00000017  00000-0  00000+0 0  9996
2 48979  87.7548 216.6919 0013598  45.7408 299.4781 14.02730320 11099
ONEWEB-0262             
1 48980U 21060P   21247.91667824  .00006333  00000-0  45043-2 0  9990
2 48980  87.6601 216.8836 0011207  51.0648 294.5376 13.97307935 10989
ONEWEB-0263             
1 48981U 21060Q   21248.50002315 -.01184528  00000-0 -98322+0 0  9996
2 48981  87.6412 216.6838 0010484  40.0671 335.0518 13.92024670 11044
ONEWEB-0264             
1 48982U 21060R   21248.16668981 -.00007015  00000-0 -50648-2 0  9992
2 48982  87.6463 216.7659 0012396  60.6648  79.0366 13.96833570 10977
ONEWEB-0265             
1 48983U 21060S   21248.16668981  .00004273  00000-0  10227-3 0  9994
2 48983  87.3994 214.0281 0008664  48.6801 191.0837 15.41091366 11392
ONEWEB-0266             
1 48984U 21060T   21248.50002315 -.01133313  00000-0 -91568+0 0  9990
2 48984  87.6547 216.7083 0013517  51.5620 283.8763 13.93977057 11038
